[
    {
        "Altitude(m)": 706555.6597224729,
        "Argument of Periapsis(deg)": 0.011390121186627068,
        "Eccentricity": 0.0,
        "Inclination(deg)": 45.0,
        "Latitude(deg)": -14.940653519147812,
        "Longitude(deg)": -136.16488679514435,
        "Mean Anomaly(deg)": -21.19408335251924,
        "RAAN(deg)": 339.98924805854176,
        "Satellite Name": "Constellation 1 1516",
        "Satellite Number": 1516,
        "Semi-Major Axis(m)": 7083131.272910544,
        "Time(s)": 190
    },
    {
        "Altitude(m)": 706543.8673342274,
        "Argument of Periapsis(deg)": 0.011450069192872472,
        "Eccentricity": 0.0,
        "Inclination(deg)": 45.0,
        "Latitude(deg)": -14.899040146453814,
        "Longitude(deg)": -136.1231490424184,
        "Mean Anomaly(deg)": -21.1333822122693,
        "RAAN(deg)": 339.98919146937624,
        "Satellite Name": "Constellation 1 1516",
        "Satellite Number": 1516,
        "Semi-Major Axis(m)": 7083131.272910544,
        "Time(s)": 191
    },
    {
        "Altitude(m)": 706532.087987128,
        "Argument of Periapsis(deg)": 0.01151001719911788,
        "Eccentricity": 0.0,
        "Inclination(deg)": 45.0,
        "Latitude(deg)": -14.857417362450809,
        "Longitude(deg)": -136.0814287809563,
        "Mean Anomaly(deg)": -21.072681072019364,
        "RAAN(deg)": 339.98913488021066,
        "Satellite Name": "Constellation 1 1516",
        "Satellite Number": 1516,
        "Semi-Major Axis(m)": 7083131.272910544,
        "Time(s)": 192
    },
    {
        "Altitude(m)": 706520.3217167218,
        "Argument of Periapsis(deg)": 0.011569965205363285,
        "Eccentricity": 0.0,
        "Inclination(deg)": 45.0,
        "Latitude(deg)": -14.815785197688616,
        "Longitude(deg)": -136.03972612474567,
        "Mean Anomaly(deg)": -21.011979931769478,
        "RAAN(deg)": 339.98907829104513,
        "Satellite Name": "Constellation 1 1516",
        "Satellite Number": 1516,
        "Semi-Major Axis(m)": 7083131.272910544,
        "Time(s)": 193
    },
    {
        "Altitude(m)": 706508.5685584875,
        "Argument of Periapsis(deg)": 0.01162991321160869,
        "Eccentricity": 0.0,
        "Inclination(deg)": 45.0,
        "Latitude(deg)": -14.774143682684032,
        "Longitude(deg)": -135.9980406835119,
        "Mean Anomaly(deg)": -20.95127879151964,
        "RAAN(deg)": 339.98902170187955,
        "Satellite Name": "Constellation 1 1516",
        "Satellite Number": 1516,
        "Semi-Major Axis(m)": 7083131.272910544,
        "Time(s)": 194
    },
    {
        "Altitude(m)": 706496.8285478485,
        "Argument of Periapsis(deg)": 0.011689861217854095,
        "Eccentricity": 0.0,
        "Inclination(deg)": 45.0,
        "Latitude(deg)": -14.732492847919557,
        "Longitude(deg)": -135.95637257130147,
        "Mean Anomaly(deg)": -20.890577651269655,
        "RAAN(deg)": 339.9889651127139,
        "Satellite Name": "Constellation 1 1516",
        "Satellite Number": 1516,
        "Semi-Major Axis(m)": 7083131.272910544,
        "Time(s)": 195
    },
    {
        "Altitude(m)": 706485.1017201544,
        "Argument of Periapsis(deg)": 0.0117498092240995,
        "Eccentricity": 0.0,
        "Inclination(deg)": 45.0,
        "Latitude(deg)": -14.6908327238448,
        "Longitude(deg)": -135.9147217340932,
        "Mean Anomaly(deg)": -20.829876511019716,
        "RAAN(deg)": 339.9889085235484,
        "Satellite Name": "Constellation 1 1516",
        "Satellite Number": 1516,
        "Semi-Major Axis(m)": 7083131.272910544,
        "Time(s)": 196
    },
    {
        "Altitude(m)": 706473.3881106849,
        "Argument of Periapsis(deg)": 0.011809757230344905,
        "Eccentricity": 0.0,
        "Inclination(deg)": 45.0,
        "Latitude(deg)": -14.649163340876063,
        "Longitude(deg)": -135.8730881178952,
        "Mean Anomaly(deg)": -20.769175370769933,
        "RAAN(deg)": 339.9888519343828,
        "Satellite Name": "Constellation 1 1516",
        "Satellite Number": 1516,
        "Semi-Major Axis(m)": 7083131.272910544,
        "Time(s)": 197
    },
    {
        "Altitude(m)": 706461.6877546664,
        "Argument of Periapsis(deg)": 0.011869705236590313,
        "Eccentricity": 0.0,
        "Inclination(deg)": 45.0,
        "Latitude(deg)": -14.607484729396036,
        "Longitude(deg)": -135.83147166874494,
        "Mean Anomaly(deg)": -20.708474230519993,
        "RAAN(deg)": 339.9887953452173,
        "Satellite Name": "Constellation 1 1516",
        "Satellite Number": 1516,
        "Semi-Major Axis(m)": 7083131.272910544,
        "Time(s)": 198
    },
    {
        "Altitude(m)": 706450.000687246,
        "Argument of Periapsis(deg)": 0.011929653242835719,
        "Eccentricity": 0.0,
        "Inclination(deg)": 45.0,
        "Latitude(deg)": -14.565796919754794,
        "Longitude(deg)": -135.78987233270922,
        "Mean Anomaly(deg)": -20.647773090270057,
        "RAAN(deg)": 339.9887387560517,
        "Satellite Name": "Constellation 1 1516",
        "Satellite Number": 1516,
        "Semi-Major Axis(m)": 7083131.272910544,
        "Time(s)": 199
    }
]